IRIDIUM 144             
1 43249U 18030A   25282.41277807  .00000149  00000+0  46304-4 0  9993
2 43249  86.3998  35.2204 0001975  90.5692 269.5730 14.34214946394192
IRIDIUM 149             
1 43250U 18030B   25282.41911414  .00000297  00000+0  98910-4 0  9998
2 43250  86.3995  35.1876 0002028  92.0656 268.0772 14.34219101394213
IRIDIUM 157             
1 43251U 18030C   25282.78698419  .00000327  00000+0  10965-3 0  9993
2 43251  86.3998  35.0816 0002052 100.3735 259.7692 14.34218955394245
IRIDIUM 140             
1 43252U 18030D   25282.31763375  .00000047  00000+0  97055-5 0  9993
2 43252  86.3995  35.2908 0002260  89.2989 270.8465 14.34217215394233
IRIDIUM 145             
1 43253U 18030E   25282.30494764  .00000350  00000+0  11806-3 0  9991
2 43253  86.3996  35.2688 0001986  83.2852 276.8569 14.34218862394169
IRIDIUM 146             
1 43254U 18030F   25282.35568669  .00000290  00000+0  96356-4 0  9990
2 43254  86.3997  35.2607 0001961  86.6059 273.5361 14.34219431394180
IRIDIUM 148             
1 43255U 18030G   25282.74258664  .00000390  00000+0  13228-3 0  9992
2 43255  86.3998  35.1383 0001932  95.1134 265.0282 14.34218825394273
